NORAD_CAT_ID,OBJECT_NAME,OBJECT_TYPE,EPOCH,MEAN_MOTION,ECCENTRICITY,INCLINATION,RA_OF_ASC_NODE,ARG_OF_PERICENTER,MEAN_ANOMALY,BSTAR,MEAN_MOTION_DOT,MEAN_MOTION_DDOT,TLE_LINE0,TLE_LINE1,TLE_LINE2,SEMIMAJOR_AXIS,PERIOD,APOGEE,PERIGEE,DECAYED
52833.0,STARLINK-4086,PAYLOAD,2024-05-25 02:40:32,15.08837434,0.0001138,53.2164,88.1497,97.431,262.6811,1.5876e-05,-3.5e-07,0.0,0 STARLINK-4086,1 52833U 22062D   24146.11148432 -.00000035  00000-0  15876-4 0  9994,2 52833  53.2164  88.1497 0001138  97.4310 262.6811 15.08837434107117,6917.888,95.438,540.54,538.966,0.0
52833.0,STARLINK-4086,PAYLOAD,2024-05-25 05:51:18,15.08837523,0.0001189,53.217,87.5521,95.4083,264.7045,6.5174e-06,-1.84e-06,0.0,0 STARLINK-4086,1 52833U 22062D   24146.24396439 -.00000184  00000-0  65174-5 0  9992,2 52833  53.2170  87.5521 0001189  95.4083 264.7045 15.08837523107139,6917.888,95.438,540.575,538.93,0.0
52833.0,STARLINK-4086,PAYLOAD,2024-05-26 05:42:05,15.08842817,0.0001227,53.2177,83.0904,90.392,269.7212,-4.4917e-05,-1.003e-05,0.0,0 STARLINK-4086,1 52833U 22062D   24147.23756311 -.00001003  00000-0 -44917-4 0  9994,2 52833  53.2177  83.0904 0001227  90.3920 269.7212 15.08842817107288,6917.872,95.437,540.586,538.888,0.0
52833.0,STARLINK-4086,PAYLOAD,2024-05-26 23:11:20,15.08833349,0.0001183,53.2175,79.82,101.6724,258.4401,0.0001123,1.5e-05,0.0,0 STARLINK-4086,1 52833U 22062D   24147.96620524  .00001500  00000-0  11230-3 0  9991,2 52833  53.2175  79.8200 0001183 101.6724 258.4401 15.08833349107394,6917.901,95.438,540.584,538.947,0.0
52833.0,STARLINK-4086,PAYLOAD,2024-05-27 11:54:25,15.08837281,0.0001311,53.2179,77.4408,104.3244,255.7893,0.00011003,1.464e-05,0.0,0 STARLINK-4086,1 52833U 22062D   24148.49612414  .00001464  00000-0  11003-3 0  9996,2 52833  53.2179  77.4408 0001311 104.3244 255.7893 15.08837281107475,6917.889,95.438,540.661,538.847,0.0
52833.0,STARLINK-4086,PAYLOAD,2024-05-27 18:15:57,15.08836536,0.0001335,53.2179,76.2514,105.1452,254.9688,8.9717e-05,1.14e-05,0.0,0 STARLINK-4086,1 52833U 22062D   24148.76108608  .00001140  00000-0  89717-4 0  9990,2 52833  53.2179  76.2514 0001335 105.1452 254.9688 15.08836536107516,6917.891,95.438,540.68,538.832,0.0
52833.0,STARLINK-4086,PAYLOAD,2024-05-28 11:45:12,15.08835834,0.0001207,53.2176,72.9804,98.2003,261.9126,2.2893e-05,7.6e-07,0.0,0 STARLINK-4086,1 52833U 22062D   24149.48973018  .00000076  00000-0  22893-4 0  9994,2 52833  53.2176  72.9804 0001207  98.2003 261.9126 15.08835834107627,6917.893,95.438,540.593,538.923,0.0
52833.0,STARLINK-4086,PAYLOAD,2024-05-29 03:39:03,15.08840996,0.000127,53.2178,70.0067,100.6586,259.4549,4.8614e-05,4.86e-06,0.0,0 STARLINK-4086,1 52833U 22062D   24150.15212637  .00000486  00000-0  48614-4 0  9997,2 52833  53.2178  70.0067 0001270 100.6586 259.4549 15.08840996107720,6917.877,95.437,540.621,538.864,0.0
52833.0,STARLINK-4086,PAYLOAD,2024-05-29 22:43:41,15.08838476,0.0001312,53.2182,66.439,100.6408,259.4732,8.3226e-05,1.037e-05,0.0,0 STARLINK-4086,1 52833U 22062D   24150.94700766  .00001037  00000-0  83226-4 0  9990,2 52833  53.2182  66.4390 0001312 100.6408 259.4732 15.08838476107840,6917.885,95.438,540.658,538.842,0.0
52833.0,STARLINK-4086,PAYLOAD,2024-05-30 03:29:50,15.0884322,0.0001382,53.2185,65.5472,91.7873,268.3278,0.0001001,1.306e-05,0.0,0 STARLINK-4086,1 52833U 22062D   24151.14572583  .00001306  00000-0  10010-3 0  9996,2 52833  53.2185  65.5472 0001382  91.7873 268.3278 15.08843220107877,6917.871,95.437,540.692,538.779,0.0
52833.0,STARLINK-4086,PAYLOAD,2024-05-30 17:48:19,15.08841636,0.0001506,53.2189,62.8731,95.6242,264.4922,7.2786e-05,8.71e-06,0.0,0 STARLINK-4086,1 52833U 22062D   24151.74188747  .00000871  00000-0  72786-4 0  9992,2 52833  53.2189  62.8731 0001506  95.6242 264.4922 15.08841636107962,6917.875,95.437,540.782,538.699,0.0
52833.0,STARLINK-4086,PAYLOAD,2024-05-31 01:45:14,15.08843453,0.0001418,53.219,61.3856,92.7603,267.3551,5.4504e-05,5.8e-06,0.0,0 STARLINK-4086,1 52833U 22062D   24152.07308690  .00000580  00000-0  54504-4 0  9995,2 52833  53.2190  61.3856 0001418  92.7603 267.3551 15.08843453108013,6917.87,95.437,540.716,538.754,0.0
52833.0,STARLINK-4086,PAYLOAD,2024-05-31 17:39:06,15.08832328,0.0001806,53.2186,58.4133,81.0923,279.0273,6.7158e-06,-1.81e-06,0.0,0 STARLINK-4086,1 52833U 22062D   24152.73549236 -.00000181  00000-0  67158-5 0  9999,2 52833  53.2186  58.4133 0001806  81.0923 279.0273 15.08832328108111,6917.904,95.438,541.018,538.519,0.0
52833.0,STARLINK-4086,PAYLOAD,2024-05-31 22:25:16,15.08830275,0.0001688,53.2186,57.5213,81.27,278.8483,-1.3081e-05,-4.96e-06,0.0,0 STARLINK-4086,1 52833U 22062D   24152.93421455 -.00000496  00000-0 -13081-4 0  9998,2 52833  53.2186  57.5213 0001688  81.2700 278.8483 15.08830275108145,6917.91,95.438,540.943,538.607,0.0
52833.0,STARLINK-4086,PAYLOAD,2024-06-01 11:08:20,15.08843163,0.000146,53.2198,55.1395,95.7963,264.3196,-3.029e-06,-3.36e-06,0.0,0 STARLINK-4086,1 52833U 22062D   24153.46412534 -.00000336  00000-0 -30290-5 0  9990,2 52833  53.2198  55.1395 0001460  95.7963 264.3196 15.08843163108222,6917.871,95.437,540.746,538.726,0.0
52833.0,STARLINK-4086,PAYLOAD,2024-06-01 20:40:40,15.08830913,0.0001797,53.2209,53.3558,98.9228,261.1967,5.0912e-05,5.22e-06,0.0,0 STARLINK-4086,1 52833U 22062D   24153.86157412  .00000522  00000-0  50912-4 0  9992,2 52833  53.2209  53.3558 0001797  98.9228 261.1967 15.08830913108284,6917.908,95.438,541.016,538.53,0.0
52833.0,STARLINK-4086,PAYLOAD,2024-06-02 03:02:12,15.0883518,0.0001701,53.2199,52.1657,103.41,256.7082,-2.0879e-05,-6.2e-06,0.0,0 STARLINK-4086,1 52833U 22062D   24154.12653428 -.00000620  00000-0 -20879-4 0  9990,2 52833  53.2199  52.1657 0001701 103.4100 256.7082 15.08835180108329,6917.895,95.438,540.937,538.583,0.0
52833.0,STARLINK-4086,PAYLOAD,2024-06-03 02:52:59,15.08837922,0.0001408,53.2174,47.7078,89.6405,270.4748,0.00015123,2.12e-05,0.0,0 STARLINK-4086,1 52833U 22062D   24155.12012905  .00002120  00000-0  15123-3 0  9990,2 52833  53.2174  47.7078 0001408  89.6405 270.4748 15.08837922108470,6917.887,95.438,540.726,538.778,0.0
52833.0,STARLINK-4086,PAYLOAD,2024-06-03 23:33:00,15.0881568,0.000115,53.2167,43.8406,96.3162,263.7961,0.00049445,7.585e-05,0.0,0 STARLINK-4086,1 52833U 22062D   24155.98125940  .00007585  00000-0  49445-3 0  9992,2 52833  53.2167  43.8406 0001150  96.3162 263.7961 15.08815680108607,6917.955,95.439,540.615,539.024,0.0
52833.0,STARLINK-4086,PAYLOAD,2024-06-04 09:05:18,15.08851767,0.0001663,53.2218,42.0561,93.9468,266.1714,0.00017189,2.45e-05,0.0,0 STARLINK-4086,1 52833U 22062D   24156.37868095  .00002450  00000-0  17189-3 0  9997,2 52833  53.2218  42.0561 0001663  93.9468 266.1714 15.08851767108663,6917.844,95.437,540.86,538.559,0.0
52833.0,STARLINK-4086,PAYLOAD,2024-06-04 17:02:14,15.08838207,0.0001946,53.2193,40.5692,81.8465,278.2748,1.1286e-05,-1.09e-06,0.0,0 STARLINK-4086,1 52833U 22062D   24156.70989525 -.00000109  00000-0  11286-4 0  9999,2 52833  53.2193  40.5692 0001946  81.8465 278.2748 15.08838207108711,6917.886,95.438,541.097,538.405,0.0
52833.0,STARLINK-4086,PAYLOAD,2024-06-04 23:23:47,15.0884131,0.0002144,53.2232,39.38,85.9996,274.1241,3.528e-05,2.73e-06,0.0,0 STARLINK-4086,1 52833U 22062D   24156.97485282  .00000273  00000-0  35280-4 0  9990,2 52833  53.2232  39.3800 0002144  85.9996 274.1241 15.08841310108753,6917.876,95.437,541.225,538.258,0.0
52833.0,STARLINK-4086,PAYLOAD,2024-06-05 08:56:06,15.08836763,0.0001933,53.2199,37.5965,87.78,272.3414,-9.3742e-06,-4.37e-06,0.0,0 STARLINK-4086,1 52833U 22062D   24157.37229675 -.00000437  00000-0 -93742-5 0  9999,2 52833  53.2199  37.5965 0001933  87.7800 272.3414 15.08836763108811,6917.89,95.438,541.093,538.418,0.0
52833.0,STARLINK-4086,PAYLOAD,2024-06-05 15:17:39,15.0883627,0.0002014,53.2189,36.4079,94.8789,265.2433,-2.6287e-06,-3.3e-06,0.0,0 STARLINK-4086,1 52833U 22062D   24157.63725753 -.00000330  00000-0 -26287-5 0  9998,2 52833  53.2189  36.4079 0002014  94.8789 265.2433 15.08836270108859,6917.892,95.438,541.15,538.364,0.0
52833.0,STARLINK-4086,PAYLOAD,2024-06-06 08:46:53,15.08846751,0.0001484,53.216,33.1353,82.6776,277.4385,-0.00010218,-1.914e-05,0.0,0 STARLINK-4086,1 52833U 22062D   24158.36589369 -.00001914  00000-0 -10218-3 0  9994,2 52833  53.2160  33.1353 0001484  82.6776 277.4385 15.08846751108966,6917.86,95.437,540.751,538.698,0.0
52833.0,STARLINK-4086,PAYLOAD,2024-06-07 00:40:45,15.08840523,0.0002479,53.2165,30.1604,83.2494,276.878,6.5024e-07,-2.78e-06,0.0,0 STARLINK-4086,1 52833U 22062D   24159.02829953 -.00000278  00000-0  65024-6 0  9993,2 52833  53.2165  30.1604 0002479  83.2494 276.8780 15.08840523109061,6917.879,95.438,541.459,538.029,0.0
52833.0,STARLINK-4086,PAYLOAD,2024-06-07 08:37:39,15.08848835,0.0002141,53.2201,28.6757,81.1949,278.9286,0.00023139,3.397e-05,0.0,0 STARLINK-4086,1 52833U 22062D   24159.35948876  .00003397  00000-0  23139-3 0  9997,2 52833  53.2201  28.6757 0002141  81.1949 278.9286 15.08848835109115,6917.853,95.437,541.199,538.237,0.0
52833.0,STARLINK-4086,PAYLOAD,2024-06-07 21:20:45,15.08841094,0.0002229,53.2151,26.2965,82.6928,277.4318,0.00012371,1.681e-05,0.0,0 STARLINK-4086,1 52833U 22062D   24159.88941640  .00001681  00000-0  12371-3 0  9997,2 52833  53.2151  26.2965 0002229  82.6928 277.4318 15.08841094109192,6917.877,95.437,541.284,538.2,0.0
52833.0,STARLINK-4086,PAYLOAD,2024-06-08 14:50:00,15.08839335,0.0002239,53.2166,23.0249,90.242,269.8829,9.3618e-05,1.202e-05,0.0,0 STARLINK-4086,1 52833U 22062D   24160.61805867  .00001202  00000-0  93618-4 0  9993,2 52833  53.2166  23.0249 0002239  90.2420 269.8829 15.08839335109301,6917.882,95.438,541.296,538.199,0.0
52833.0,STARLINK-4086,PAYLOAD,2024-06-08 21:11:32,15.08839021,0.0002201,53.2168,21.8349,93.5452,266.5791,8.4448e-05,1.056e-05,0.0,0 STARLINK-4086,1 52833U 22062D   24160.88301917  .00001056  00000-0  84448-4 0  9997,2 52833  53.2168  21.8349 0002201  93.5452 266.5791 15.08839021109348,6917.883,95.438,541.271,538.226,0.0
